<?xml version="1.0" encoding="UTF-8"?>
<ndm xmlns:xsi="http://www.w3.org/2001/XMLSchema-instance" xsi:noNamespaceSchemaLocation="https://sanaregistry.org/r/ndmxml_unqualified/ndmxml-2.0.0-master-2.0.xsd">
<omm id="CCSDS_OMM_VERS" version="2.0">
<header><CREATION_DATE/><ORIGINATOR/></header><body><segment><metadata><OBJECT_NAME>ORBCOMM FM05</OBJECT_NAME><OBJECT_ID>1997-084F</OBJECT_ID><CENTER_NAME>EARTH</CENTER_NAME><REF_FRAME>TEME</REF_FRAME><TIME_SYSTEM>UTC</TIME_SYSTEM><MEAN_ELEMENT_THEORY>SGP4</MEAN_ELEMENT_THEORY></metadata><data><meanElements><EPOCH>2024-09-30T21:37:30.022752</EPOCH><MEAN_MOTION>14.43823759</MEAN_MOTION><ECCENTRICITY>.0002801</ECCENTRICITY><INCLINATION>45.0141</INCLINATION><RA_OF_ASC_NODE>171.2698</RA_OF_ASC_NODE><ARG_OF_PERICENTER>9.0144</ARG_OF_PERICENTER><MEAN_ANOMALY>351.0756</MEAN_ANOMALY></meanElements><tleParameters><EPHEMERIS_TYPE>0</EPHEMERIS_TYPE><CLASSIFICATION_TYPE>U</CLASSIFICATION_TYPE><NORAD_CAT_ID>25117</NORAD_CAT_ID><ELEMENT_SET_NO>999</ELEMENT_SET_NO><REV_AT_EPOCH>40310</REV_AT_EPOCH><BSTAR>.17949E-2</BSTAR><MEAN_MOTION_DOT>.6033E-4</MEAN_MOTION_DOT><MEAN_MOTION_DDOT>0</MEAN_MOTION_DDOT></tleParameters></data></segment></body></omm>
<omm id="CCSDS_OMM_VERS" version="2.0">
<header><CREATION_DATE/><ORIGINATOR/></header><body><segment><metadata><OBJECT_NAME>ORBCOMM FM06</OBJECT_NAME><OBJECT_ID>1997-084G</OBJECT_ID><CENTER_NAME>EARTH</CENTER_NAME><REF_FRAME>TEME</REF_FRAME><TIME_SYSTEM>UTC</TIME_SYSTEM><MEAN_ELEMENT_THEORY>SGP4</MEAN_ELEMENT_THEORY></metadata><data><meanElements><EPOCH>2024-09-30T20:37:41.784096</EPOCH><MEAN_MOTION>14.43945759</MEAN_MOTION><ECCENTRICITY>.0002086</ECCENTRICITY><INCLINATION>45.0136</INCLINATION><RA_OF_ASC_NODE>171.5320</RA_OF_ASC_NODE><ARG_OF_PERICENTER>23.4124</ARG_OF_PERICENTER><MEAN_ANOMALY>19.0014</MEAN_ANOMALY></meanElements><tleParameters><EPHEMERIS_TYPE>0</EPHEMERIS_TYPE><CLASSIFICATION_TYPE>U</CLASSIFICATION_TYPE><NORAD_CAT_ID>25118</NORAD_CAT_ID><ELEMENT_SET_NO>999</ELEMENT_SET_NO><REV_AT_EPOCH>40403</REV_AT_EPOCH><BSTAR>.19173E-2</BSTAR><MEAN_MOTION_DOT>.6471E-4</MEAN_MOTION_DOT><MEAN_MOTION_DDOT>0</MEAN_MOTION_DDOT></tleParameters></data></segment></body></omm>
<omm id="CCSDS_OMM_VERS" version="2.0">
<header><CREATION_DATE/><ORIGINATOR/></header><body><segment><metadata><OBJECT_NAME>ORBCOMM FM07</OBJECT_NAME><OBJECT_ID>1997-084H</OBJECT_ID><CENTER_NAME>EARTH</CENTER_NAME><REF_FRAME>TEME</REF_FRAME><TIME_SYSTEM>UTC</TIME_SYSTEM><MEAN_ELEMENT_THEORY>SGP4</MEAN_ELEMENT_THEORY></metadata><data><meanElements><EPOCH>2024-09-30T20:27:23.008032</EPOCH><MEAN_MOTION>14.43835052</MEAN_MOTION><ECCENTRICITY>.000344</ECCENTRICITY><INCLINATION>45.0131</INCLINATION><RA_OF_ASC_NODE>172.2050</RA_OF_ASC_NODE><ARG_OF_PERICENTER>358.8511</ARG_OF_PERICENTER><MEAN_ANOMALY>1.2331</MEAN_ANOMALY></meanElements><tleParameters><EPHEMERIS_TYPE>0</EPHEMERIS_TYPE><CLASSIFICATION_TYPE>U</CLASSIFICATION_TYPE><NORAD_CAT_ID>25119</NORAD_CAT_ID><ELEMENT_SET_NO>999</ELEMENT_SET_NO><REV_AT_EPOCH>40400</REV_AT_EPOCH><BSTAR>.18264E-2</BSTAR><MEAN_MOTION_DOT>.6143E-4</MEAN_MOTION_DOT><MEAN_MOTION_DDOT>0</MEAN_MOTION_DDOT></tleParameters></data></segment></body></omm>
<omm id="CCSDS_OMM_VERS" version="2.0">
<header><CREATION_DATE/><ORIGINATOR/></header><body><segment><metadata><OBJECT_NAME>ORBCOMM FM03</OBJECT_NAME><OBJECT_ID>1998-007B</OBJECT_ID><CENTER_NAME>EARTH</CENTER_NAME><REF_FRAME>TEME</REF_FRAME><TIME_SYSTEM>UTC</TIME_SYSTEM><MEAN_ELEMENT_THEORY>SGP4</MEAN_ELEMENT_THEORY></metadata><data><meanElements><EPOCH>2024-09-30T21:09:57.016224</EPOCH><MEAN_MOTION>14.32975026</MEAN_MOTION><ECCENTRICITY>.0046854</ECCENTRICITY><INCLINATION>107.9715</INCLINATION><RA_OF_ASC_NODE>323.4054</RA_OF_ASC_NODE><ARG_OF_PERICENTER>339.4184</ARG_OF_PERICENTER><MEAN_ANOMALY>20.5067</MEAN_ANOMALY></meanElements><tleParameters><EPHEMERIS_TYPE>0</EPHEMERIS_TYPE><CLASSIFICATION_TYPE>U</CLASSIFICATION_TYPE><NORAD_CAT_ID>25158</NORAD_CAT_ID><ELEMENT_SET_NO>999</ELEMENT_SET_NO><REV_AT_EPOCH>38687</REV_AT_EPOCH><BSTAR>.12921E-2</BSTAR><MEAN_MOTION_DOT>.3455E-4</MEAN_MOTION_DOT><MEAN_MOTION_DDOT>0</MEAN_MOTION_DDOT></tleParameters></data></segment></body></omm>
<omm id="CCSDS_OMM_VERS" version="2.0">
<header><CREATION_DATE/><ORIGINATOR/></header><body><segment><metadata><OBJECT_NAME>ORBCOMM FM04</OBJECT_NAME><OBJECT_ID>1998-007C</OBJECT_ID><CENTER_NAME>EARTH</CENTER_NAME><REF_FRAME>TEME</REF_FRAME><TIME_SYSTEM>UTC</TIME_SYSTEM><MEAN_ELEMENT_THEORY>SGP4</MEAN_ELEMENT_THEORY></metadata><data><meanElements><EPOCH>2024-09-30T21:55:22.539648</EPOCH><MEAN_MOTION>14.33246228</MEAN_MOTION><ECCENTRICITY>.0042564</ECCENTRICITY><INCLINATION>107.9698</INCLINATION><RA_OF_ASC_NODE>326.5086</RA_OF_ASC_NODE><ARG_OF_PERICENTER>336.6688</ARG_OF_PERICENTER><MEAN_ANOMALY>23.2519</MEAN_ANOMALY></meanElements><tleParameters><EPHEMERIS_TYPE>0</EPHEMERIS_TYPE><CLASSIFICATION_TYPE>U</CLASSIFICATION_TYPE><NORAD_CAT_ID>25159</NORAD_CAT_ID><ELEMENT_SET_NO>999</ELEMENT_SET_NO><REV_AT_EPOCH>38705</REV_AT_EPOCH><BSTAR>.13233E-2</BSTAR><MEAN_MOTION_DOT>.3553E-4</MEAN_MOTION_DOT><MEAN_MOTION_DDOT>0</MEAN_MOTION_DDOT></tleParameters></data></segment></body></omm>
<omm id="CCSDS_OMM_VERS" version="2.0">
<header><CREATION_DATE/><ORIGINATOR/></header><body><segment><metadata><OBJECT_NAME>ORBCOMM FM17</OBJECT_NAME><OBJECT_ID>1998-046A</OBJECT_ID><CENTER_NAME>EARTH</CENTER_NAME><REF_FRAME>TEME</REF_FRAME><TIME_SYSTEM>UTC</TIME_SYSTEM><MEAN_ELEMENT_THEORY>SGP4</MEAN_ELEMENT_THEORY></metadata><data><meanElements><EPOCH>2024-09-30T18:50:24.264384</EPOCH><MEAN_MOTION>14.33817518</MEAN_MOTION><ECCENTRICITY>.0001453</ECCENTRICITY><INCLINATION>44.9949</INCLINATION><RA_OF_ASC_NODE>40.8468</RA_OF_ASC_NODE><ARG_OF_PERICENTER>301.7003</ARG_OF_PERICENTER><MEAN_ANOMALY>58.3702</MEAN_ANOMALY></meanElements><tleParameters><EPHEMERIS_TYPE>0</EPHEMERIS_TYPE><CLASSIFICATION_TYPE>U</CLASSIFICATION_TYPE><NORAD_CAT_ID>25413</NORAD_CAT_ID><ELEMENT_SET_NO>999</ELEMENT_SET_NO><REV_AT_EPOCH>36592</REV_AT_EPOCH><BSTAR>.13488E-2</BSTAR><MEAN_MOTION_DOT>.3647E-4</MEAN_MOTION_DOT><MEAN_MOTION_DDOT>0</MEAN_MOTION_DDOT></tleParameters></data></segment></body></omm>
<omm id="CCSDS_OMM_VERS" version="2.0">
<header><CREATION_DATE/><ORIGINATOR/></header><body><segment><metadata><OBJECT_NAME>ORBCOMM FM18</OBJECT_NAME><OBJECT_ID>1998-046B</OBJECT_ID><CENTER_NAME>EARTH</CENTER_NAME><REF_FRAME>TEME</REF_FRAME><TIME_SYSTEM>UTC</TIME_SYSTEM><MEAN_ELEMENT_THEORY>SGP4</MEAN_ELEMENT_THEORY></metadata><data><meanElements><EPOCH>2024-09-30T15:10:38.326656</EPOCH><MEAN_MOTION>14.36817888</MEAN_MOTION><ECCENTRICITY>.0002524</ECCENTRICITY><INCLINATION>44.9937</INCLINATION><RA_OF_ASC_NODE>325.5062</RA_OF_ASC_NODE><ARG_OF_PERICENTER>20.3280</ARG_OF_PERICENTER><MEAN_ANOMALY>339.7668</MEAN_ANOMALY></meanElements><tleParameters><EPHEMERIS_TYPE>0</EPHEMERIS_TYPE><CLASSIFICATION_TYPE>U</CLASSIFICATION_TYPE><NORAD_CAT_ID>25414</NORAD_CAT_ID><ELEMENT_SET_NO>999</ELEMENT_SET_NO><REV_AT_EPOCH>36689</REV_AT_EPOCH><BSTAR>.14824E-2</BSTAR><MEAN_MOTION_DOT>.4279E-4</MEAN_MOTION_DOT><MEAN_MOTION_DDOT>0</MEAN_MOTION_DDOT></tleParameters></data></segment></body></omm>
<omm id="CCSDS_OMM_VERS" version="2.0">
<header><CREATION_DATE/><ORIGINATOR/></header><body><segment><metadata><OBJECT_NAME>ORBCOMM FM19</OBJECT_NAME><OBJECT_ID>1998-046C</OBJECT_ID><CENTER_NAME>EARTH</CENTER_NAME><REF_FRAME>TEME</REF_FRAME><TIME_SYSTEM>UTC</TIME_SYSTEM><MEAN_ELEMENT_THEORY>SGP4</MEAN_ELEMENT_THEORY></metadata><data><meanElements><EPOCH>2024-09-30T20:33:39.252384</EPOCH><MEAN_MOTION>14.36652267</MEAN_MOTION><ECCENTRICITY>.0001981</ECCENTRICITY><INCLINATION>44.9948</INCLINATION><RA_OF_ASC_NODE>326.0520</RA_OF_ASC_NODE><ARG_OF_PERICENTER>351.4445</ARG_OF_PERICENTER><MEAN_ANOMALY>178.9782</MEAN_ANOMALY></meanElements><tleParameters><EPHEMERIS_TYPE>0</EPHEMERIS_TYPE><CLASSIFICATION_TYPE>U</CLASSIFICATION_TYPE><NORAD_CAT_ID>25415</NORAD_CAT_ID><ELEMENT_SET_NO>999</ELEMENT_SET_NO><REV_AT_EPOCH>36688</REV_AT_EPOCH><BSTAR>.17079E-2</BSTAR><MEAN_MOTION_DOT>.4935E-4</MEAN_MOTION_DOT><MEAN_MOTION_DDOT>0</MEAN_MOTION_DDOT></tleParameters></data></segment></body></omm>

</ndm>
