ORBCOMM FM05            
1 25117U 97084F   24274.90104193  .00006033  00000+0  17949-2 0  9993
2 25117  45.0141 171.2698 0002801   9.0144 351.0756 14.43823759403107
ORBCOMM FM06            
1 25118U 97084G   24274.85951139  .00006471  00000+0  19173-2 0  9995
2 25118  45.0136 171.5320 0002086  23.4124  19.0014 14.43945759404036
ORBCOMM FM07            
1 25119U 97084H   24274.85234963  .00006143  00000+0  18264-2 0  9991
2 25119  45.0131 172.2050 0003440 358.8511   1.2331 14.43835052404006
ORBCOMM FM03            
1 25158U 98007B   24274.88190991  .00003455  00000+0  12921-2 0  9992
2 25158 107.9715 323.4054 0046854 339.4184  20.5067 14.32975026386874
ORBCOMM FM04            
1 25159U 98007C   24274.91345532  .00003553  00000+0  13233-2 0  9996
2 25159 107.9698 326.5086 0042564 336.6688  23.2519 14.33246228387055
ORBCOMM FM17            
1 25413U 98046A   24274.78500306  .00003647  00000+0  13488-2 0  9995
2 25413  44.9949  40.8468 0001453 301.7003  58.3702 14.33817518365924
ORBCOMM FM18            
1 25414U 98046B   24274.63238804  .00004279  00000+0  14824-2 0  9998
2 25414  44.9937 325.5062 0002524  20.3280 339.7668 14.36817888366893
ORBCOMM FM19            
1 25415U 98046C   24274.85670431  .00004935  00000+0  17079-2 0  9993
2 25415  44.9948 326.0520 0001981 351.4445 178.9782 14.36652267366885
